{
  "type": "FeatureCollection",
  "features": [
    {
      "type": "Feature",
      "properties": {
        "norad_id": 40115,
        "name": "WORLDVIEW-3 (WV-3)",
        "group": "resource",
        "lat": -82.01851301096802,
        "lon": 137.72794952327388,
        "alt_km": 618.879912865501,
        "timestamp": "2025-12-11T05:00:25.968154+00:00",
        "meta_object_name": "WORLDVIEW-3 (WV-3)",
        "meta_object_id": "2014-048A",
        "meta_epoch": "2025-12-10T21:19:22.804032",
        "meta_mean_motion": 14.85503952,
        "meta_eccentricity": 0.00046075,
        "meta_inclination": 97.8617,
        "meta_ra_of_asc_node": 57.192,
        "meta_arg_of_pericenter": 190.9245,
        "meta_mean_anomaly": 169.1871,
        "meta_ephemeris_type": 0,
        "meta_classification_type": "U",
        "meta_norad_cat_id": 40115,
        "meta_element_set_no": 999,
        "meta_rev_at_epoch": 61396,
        "meta_bstar": 0.00021051658,
        "meta_mean_motion_dot": 1.764e-05,
        "meta_mean_motion_ddot": 0,
        "tle_line1": "1 40115U 14048A   25344.88845838  .00001764  00000+0  21052-3 0  9998",
        "tle_line2": "2 40115  97.8617  57.1920 0004607 190.9245 169.1871 14.85503952613962"
      },
      "geometry": {
        "type": "Point",
        "coordinates": [
          137.72794952327388,
          -82.01851301096802
        ]
      }
    },
    {
      "type": "Feature",
      "properties": {
        "norad_id": 40118,
        "name": "GAOFEN-2",
        "group": "resource",
        "lat": 63.153360044094846,
        "lon": -119.4144796643359,
        "alt_km": 615.3113370836136,
        "timestamp": "2025-12-11T05:00:25.968164+00:00",
        "meta_object_name": "GAOFEN-2",
        "meta_object_id": "2014-049A",
        "meta_epoch": "2025-12-10T23:37:16.457664",
        "meta_mean_motion": 14.80601757,
        "meta_eccentricity": 0.00085055,
        "meta_inclination": 98.0381,
        "meta_ra_of_asc_node": 44.1489,
        "meta_arg_of_pericenter": 117.8856,
        "meta_mean_anomaly": 242.3219,
        "meta_ephemeris_type": 0,
        "meta_classification_type": "U",
        "meta_norad_cat_id": 40118,
        "meta_element_set_no": 999,
        "meta_rev_at_epoch": 61138,
        "meta_bstar": 0.00012487649,
        "meta_mean_motion_dot": 9.05e-06,
        "meta_mean_motion_ddot": 0,
        "tle_line1": "1 40118U 14049A   25344.98421826  .00000905  00000+0  12488-3 0  9999",
        "tle_line2": "2 40118  98.0381  44.1489 0008505 117.8856 242.3219 14.80601757611380"
      },
      "geometry": {
        "type": "Point",
        "coordinates": [
          -119.4144796643359,
          63.153360044094846
        ]
      }
    },
    {
      "type": "Feature",
      "properties": {
        "norad_id": 40143,
        "name": "YAOGAN-21",
        "group": "resource",
        "lat": -22.225429681393038,
        "lon": -154.3638492458337,
        "alt_km": 506.5197241154192,
        "timestamp": "2025-12-11T05:00:25.968175+00:00",
        "meta_object_name": "YAOGAN-21",
        "meta_object_id": "2014-053A",
        "meta_epoch": "2025-12-10T23:23:38.700672",
        "meta_mean_motion": 15.23645384,
        "meta_eccentricity": 0.00098968,
        "meta_inclination": 97.176,
        "meta_ra_of_asc_node": 28.3634,
        "meta_arg_of_pericenter": 47.3476,
        "meta_mean_anomaly": 312.8594,
        "meta_ephemeris_type": 0,
        "meta_classification_type": "U",
        "meta_norad_cat_id": 40143,
        "meta_element_set_no": 999,
        "meta_rev_at_epoch": 62627,
        "meta_bstar": 0.00040459361,
        "meta_mean_motion_dot": 9.647e-05,
        "meta_mean_motion_ddot": 0,
        "tle_line1": "1 40143U 14053A   25344.97475348  .00009647  00000+0  40459-3 0  9990",
        "tle_line2": "2 40143  97.1760  28.3634 0009896  47.3476 312.8594 15.23645384626279"
      },
      "geometry": {
        "type": "Point",
        "coordinates": [
          -154.3638492458337,
          -22.225429681393038
        ]
      }
    },
    {
      "type": "Feature",
      "properties": {
        "norad_id": 40275,
        "name": "YAOGAN-22",
        "group": "resource",
        "lat": 73.54123288113095,
        "lon": -11.41372553283332,
        "alt_km": 1198.6141455473708,
        "timestamp": "2025-12-11T05:00:25.968185+00:00",
        "meta_object_name": "YAOGAN-22",
        "meta_object_id": "2014-063A",
        "meta_epoch": "2025-12-10T15:42:39.021984",
        "meta_mean_motion": 13.15522571,
        "meta_eccentricity": 0.0005942,
        "meta_inclination": 100.742,
        "meta_ra_of_asc_node": 128.0447,
        "meta_arg_of_pericenter": 253.3648,
        "meta_mean_anomaly": 106.6811,
        "meta_ephemeris_type": 0,
        "meta_classification_type": "U",
        "meta_norad_cat_id": 40275,
        "meta_element_set_no": 999,
        "meta_rev_at_epoch": 53502,
        "meta_bstar": 9.7846e-05,
        "meta_mean_motion_dot": -1e-07,
        "meta_mean_motion_ddot": 0,
        "tle_line1": "1 40275U 14063A   25344.65461831 -.00000010  00000+0  97846-4 0  9993",
        "tle_line2": "2 40275 100.7420 128.0447 0005942 253.3648 106.6811 13.15522571535021"
      },
      "geometry": {
        "type": "Point",
        "coordinates": [
          -11.41372553283332,
          73.54123288113095
        ]
      }
    },
    {
      "type": "Feature",
      "properties": {
        "norad_id": 40298,
        "name": "ASNARO",
        "group": "resource",
        "lat": -81.99197946231163,
        "lon": 128.03018917789592,
        "alt_km": 518.0578139580903,
        "timestamp": "2025-12-11T05:00:25.968195+00:00",
        "meta_object_name": "ASNARO",
        "meta_object_id": "2014-070A",
        "meta_epoch": "2025-12-10T23:04:02.071776",
        "meta_mean_motion": 15.19427937,
        "meta_eccentricity": 0.00054271,
        "meta_inclination": 97.3649,
        "meta_ra_of_asc_node": 60.9502,
        "meta_arg_of_pericenter": 126.8577,
        "meta_mean_anomaly": 233.3156,
        "meta_ephemeris_type": 0,
        "meta_classification_type": "U",
        "meta_norad_cat_id": 40298,
        "meta_element_set_no": 999,
        "meta_rev_at_epoch": 61542,
        "meta_bstar": 0.00067650311,
        "meta_mean_motion_dot": 0.00014286,
        "meta_mean_motion_ddot": 0,
        "tle_line1": "1 40298U 14070A   25344.96113509  .00014286  00000+0  67650-3 0  9994",
        "tle_line2": "2 40298  97.3649  60.9502 0005427 126.8577 233.3156 15.19427937615428"
      },
      "geometry": {
        "type": "Point",
        "coordinates": [
          128.03018917789592,
          -81.99197946231163
        ]
      }
    },
    {
      "type": "Feature",
      "properties": {
        "norad_id": 40310,
        "name": "YAOGAN-24",
        "group": "resource",
        "lat": 55.38710065500877,
        "lon": -51.76452700310236,
        "alt_km": 626.4335841391157,
        "timestamp": "2025-12-11T05:00:25.968205+00:00",
        "meta_object_name": "YAOGAN-24",
        "meta_object_id": "2014-072A",
        "meta_epoch": "2025-12-10T23:34:06.775104",
        "meta_mean_motion": 14.7616968,
        "meta_eccentricity": 0.00146502,
        "meta_inclination": 98.1224,
        "meta_ra_of_asc_node": 116.0656,
        "meta_arg_of_pericenter": 143.2656,
        "meta_mean_anomaly": 216.956,
        "meta_ephemeris_type": 0,
        "meta_classification_type": "U",
        "meta_norad_cat_id": 40310,
        "meta_element_set_no": 999,
        "meta_rev_at_epoch": 59595,
        "meta_bstar": 0.00018054118,
        "meta_mean_motion_dot": 1.197e-05,
        "meta_mean_motion_ddot": 0,
        "tle_line1": "1 40310U 14072A   25344.98202286  .00001197  00000+0  18054-3 0  9995",
        "tle_line2": "2 40310  98.1224 116.0656 0014650 143.2656 216.9560 14.76169680595954"
      },
      "geometry": {
        "type": "Point",
        "coordinates": [
          -51.76452700310236,
          55.38710065500877
        ]
      }
    },
    {
      "type": "Feature",
      "properties": {
        "norad_id": 40336,
        "name": "CBERS 4",
        "group": "resource",
        "lat": 81.43680882274879,
        "lon": -33.39674109591103,
        "alt_km": 764.8444105618073,
        "timestamp": "2025-12-11T05:00:25.968216+00:00",
        "meta_object_name": "CBERS 4",
        "meta_object_id": "2014-079A",
        "meta_epoch": "2025-12-10T23:34:48.724032",
        "meta_mean_motion": 14.3551633,
        "meta_eccentricity": 0.00016293,
        "meta_inclination": 98.3306,
        "meta_ra_of_asc_node": 43.059,
        "meta_arg_of_pericenter": 114.4544,
        "meta_mean_anomaly": 245.6812,
        "meta_ephemeris_type": 0,
        "meta_classification_type": "U",
        "meta_norad_cat_id": 40336,
        "meta_element_set_no": 999,
        "meta_rev_at_epoch": 57695,
        "meta_bstar": 6.9619163e-05,
        "meta_mean_motion_dot": 1.58e-06,
        "meta_mean_motion_ddot": 0,
        "tle_line1": "1 40336U 14079A   25344.98250838  .00000158  00000+0  69619-4 0  9996",
        "tle_line2": "2 40336  98.3306  43.0590 0001629 114.4544 245.6812 14.35516330576950"
      },
      "geometry": {
        "type": "Point",
        "coordinates": [
          -33.39674109591103,
          81.43680882274879
        ]
      }
    }
  ]
}